NORAD_CAT_ID,OBJECT_NAME,OBJECT_TYPE,EPOCH,MEAN_MOTION,ECCENTRICITY,INCLINATION,RA_OF_ASC_NODE,ARG_OF_PERICENTER,MEAN_ANOMALY,BSTAR,MEAN_MOTION_DOT,MEAN_MOTION_DDOT,TLE_LINE0,TLE_LINE1,TLE_LINE2,SEMIMAJOR_AXIS,PERIOD,APOGEE,PERIGEE,DECAYED
49749,STARLINK-3250,PAYLOAD,2022-10-04 23:16:12,15.08838858,0.0002135,53.2182,8.3098,37.2395,322.8745,9.0426e-05,1.151e-05,0.0,0 STARLINK-3250,1 49749U 21115AB  22277.96959326  .00001151  00000-0  90426-4 0  9995,2 49749  53.2182   8.3098 0002135  37.2395 322.8745 15.08838858 47673,6917.884,95.438,541.226,538.272,0.0
49749,STARLINK-3250,PAYLOAD,2022-10-05 11:59:18,15.08839871,0.0001861,53.2197,5.9329,52.3686,307.7475,-9.7567e-05,-1.841e-05,0.0,0 STARLINK-3250,1 49749U 21115AB  22278.49951974 -.00001841  00000-0 -97567-4 0  9996,2 49749  53.2197   5.9329 0001861  52.3686 307.7475 15.08839871 46649,6917.881,95.438,541.033,538.458,0.0
49749,STARLINK-3250,PAYLOAD,2022-10-06 11:50:05,15.08840719,0.0002172,53.2197,1.4717,42.9929,317.1233,4.5792e-05,4.41e-06,0.0,0 STARLINK-3250,1 49749U 21115AB  22279.49311676  .00000441  00000-0  45792-4 0  9992,2 49749  53.2197   1.4717 0002172  42.9929 317.1233 15.08840719 46798,6917.878,95.438,541.246,538.241,0.0
49749,STARLINK-3250,PAYLOAD,2022-10-06 15:00:51,15.08847056,0.0002148,53.2183,0.8761,39.3426,320.7722,9.7135e-05,1.258e-05,0.0,0 STARLINK-3250,1 49749U 21115AB  22279.62559103  .00001258  00000-0  97135-4 0  9991,2 49749  53.2183   0.8761 0002148  39.3426 320.7722 15.08847056 47920,6917.859,95.437,541.21,538.238,0.0
49749,STARLINK-3250,PAYLOAD,2022-10-07 11:40:51,15.0885357,0.0002377,53.2179,357.0094,44.6009,315.5174,0.00013131,1.803e-05,0.0,0 STARLINK-3250,1 49749U 21115AB  22280.48670474  .00001803  00000-0  13131-3 0  9991,2 49749  53.2179 357.0094 0002377  44.6009 315.5174 15.08853570 46943,6917.839,95.437,541.348,538.06,0.0
49749,STARLINK-3250,PAYLOAD,2022-10-07 16:27:00,15.08848833,0.000191,53.2196,356.1188,35.111,325.0008,0.00014386,2.003e-05,0.0,0 STARLINK-3250,1 49749U 21115AB  22280.68542630  .00002003  00000-0  14386-3 0  9991,2 49749  53.2196 356.1188 0001910  35.1110 325.0008 15.08848833 48081,6917.853,95.437,541.04,538.397,0.0
49749,STARLINK-3250,PAYLOAD,2022-10-08 05:10:07,15.08837823,0.0002034,53.2177,353.7363,50.6808,309.4364,1.1792e-05,-1.01e-06,0.0,0 STARLINK-3250,1 49749U 21115AB  22281.21535907 -.00000101  00000-0  11792-4 0  9997,2 49749  53.2177 353.7363 0002034  50.6808 309.4364 15.08837823 48169,6917.887,95.438,541.159,538.345,0.0
49749,STARLINK-3250,PAYLOAD,2022-10-08 11:31:40,15.08830307,0.0002318,53.2186,352.5522,29.1862,330.926,-6.8918e-06,-3.98e-06,0.0,0 STARLINK-3250,1 49749U 21115AB  22281.48032547 -.00000398  00000-0 -68918-5 0  9990,2 49749  53.2186 352.5522 0002318  29.1862 330.9260 15.08830307 48208,6917.91,95.438,541.379,538.171,0.0
49749,STARLINK-3250,PAYLOAD,2022-10-08 14:42:26,15.08832625,0.0002116,53.2177,351.9531,37.1331,322.9807,-5.5917e-05,-1.178e-05,0.0,0 STARLINK-3250,1 49749U 21115AB  22281.61280595 -.00001178  00000-0 -55917-4 0  9994,2 49749  53.2177 351.9531 0002116  37.1331 322.9807 15.08832625 47119,6917.903,95.438,541.232,538.304,0.0
49749,STARLINK-3250,PAYLOAD,2022-10-09 05:00:54,15.08840496,0.0002097,53.2176,349.2769,36.3187,323.7947,-9.8109e-06,-4.44e-06,0.0,0 STARLINK-3250,1 49749U 21115AB  22282.20896028 -.00000444  00000-0 -98109-5 0  9990,2 49749  53.2176 349.2769 0002097  36.3187 323.7947 15.08840496 48311,6917.879,95.438,541.195,538.293,0.0
49749,STARLINK-3250,PAYLOAD,2023-05-02 06:55:01,15.08883125,0.0001305,53.2174,148.6428,97.5243,262.5898,0.00061692,9.555e-05,0.0,0 STARLINK-3250,1 49749U 21115AB  23122.28821250  .00009555  00000-0  61692-3 0  9992,2 49749  53.2174 148.6428 0001305  97.5243 262.5898 15.08883125 79275,6917.749,95.435,540.516,538.711,0.0
49749,STARLINK-3250,PAYLOAD,2023-05-02 11:41:11,15.08898994,0.0001003,53.2159,147.7504,77.1004,283.01,0.0010685,0.00016786,0.0,0 STARLINK-3250,1 49749U 21115AB  23122.48693937  .00016786  00000-0  10685-2 0  9992,2 49749  53.2159 147.7504 0001003  77.1004 283.0100 15.08898994 79305,6917.7,95.434,540.259,538.871,0.0
49749,STARLINK-3250,PAYLOAD,2023-05-03 05:10:26,15.08850024,0.0001568,53.2155,144.4772,131.3513,228.7614,1.5099e-05,-4.8e-07,0.0,0 STARLINK-3250,1 49749U 21115AB  23123.21558678 -.00000048  00000-0  15099-4 0  9997,2 49749  53.2155 144.4772 0001568 131.3513 228.7614 15.08850024 79416,6917.85,95.437,540.799,538.63,0.0
49749,STARLINK-3250,PAYLOAD,2023-05-03 11:31:59,15.08840495,0.0001077,53.2151,143.2901,87.3034,272.8081,-0.00016682,-2.942e-05,0.0,0 STARLINK-3250,1 49749U 21115AB  23123.48055128 -.00002942  00000-0 -16682-3 0  9992,2 49749  53.2151 143.2901 0001077  87.3034 272.8081 15.08840495 79459,6917.879,95.438,540.489,538.999,0.0
49749,STARLINK-3250,PAYLOAD,2023-05-04 03:25:50,15.08850255,0.0001199,53.2159,140.3173,89.1706,270.9424,-0.00062612,-0.00010241,0.0,0 STARLINK-3250,1 49749U 21115AB  23124.14294377 -.00010241  00000-0 -62612-3 0  9992,2 49749  53.2159 140.3173 0001199  89.1706 270.9424 15.08850255 79553,6917.849,95.437,540.543,538.885,0.0
49749,STARLINK-3250,PAYLOAD,2023-05-04 09:47:22,15.08839826,0.000117,53.2152,139.1272,87.8964,272.2162,-0.00047036,-7.766e-05,0.0,0 STARLINK-3250,1 49749U 21115AB  23124.40790409 -.00007766  00000-0 -47036-3 0  9999,2 49749  53.2152 139.1272 0001170  87.8964 272.2162 15.08839826 78488,6917.881,95.438,540.555,538.937,0.0
49749,STARLINK-3250,PAYLOAD,2023-05-05 08:02:48,15.08825439,0.0001222,53.2153,134.9644,94.3026,265.8105,0.0001548,2.176e-05,0.0,0 STARLINK-3250,1 49749U 21115AB  23125.33528172  .00002176  00000-0  15480-3 0  9994,2 49749  53.2153 134.9644 0001222  94.3026 265.8105 15.08825439 79734,6917.925,95.438,540.635,538.945,0.0
49749,STARLINK-3250,PAYLOAD,2023-05-05 17:35:07,15.08830613,0.0001199,53.2153,133.18,92.29,267.8229,0.00020495,2.975e-05,0.0,0 STARLINK-3250,1 49749U 21115AB  23125.73272323  .00002975  00000-0  20495-3 0  9991,2 49749  53.2153 133.1800 0001199  92.2900 267.8229 15.08830613 78682,6917.909,95.438,540.604,538.945,0.0
49749,STARLINK-3250,PAYLOAD,2023-05-06 09:28:58,15.08839826,0.0001157,53.2146,130.2057,92.5299,267.5825,0.00031525,4.733e-05,0.0,0 STARLINK-3250,1 49749U 21115AB  23126.39512384  .00004733  00000-0  31525-3 0  9998,2 49749  53.2146 130.2057 0001157  92.5299 267.5825 15.08839826 78789,6917.881,95.438,540.546,538.946,0.0
49749,STARLINK-3250,PAYLOAD,2023-05-06 17:25:54,15.08837859,0.0001151,53.2144,128.7183,89.9362,270.1762,0.00025061,3.703e-05,0.0,0 STARLINK-3250,1 49749U 21115AB  23126.72632626  .00003703  00000-0  25061-3 0  9991,2 49749  53.2144 128.7183 0001151  89.9362 270.1762 15.08837859 79947,6917.887,95.438,540.548,538.956,0.0
49749,STARLINK-3250,PAYLOAD,2023-05-07 07:44:22,15.08840251,0.0001169,53.2144,126.0419,89.2584,270.8542,0.00022595,3.31e-05,0.0,0 STARLINK-3250,1 49749U 21115AB  23127.32248695  .00003310  00000-0  22595-3 0  9990,2 49749  53.2144 126.0419 0001169  89.2584 270.8542 15.08840251 78928,6917.88,95.438,540.553,538.936,0.0
49749,STARLINK-3250,PAYLOAD,2023-05-07 17:16:41,15.08842174,0.0001179,53.2148,124.2579,88.4359,271.6768,0.00021866,3.194e-05,0.0,0 STARLINK-3250,1 49749U 21115AB  23127.71992697  .00003194  00000-0  21866-3 0  9991,2 49749  53.2148 124.2579 0001179  88.4359 271.6768 15.08842174 78982,6917.874,95.437,540.554,538.923,0.0
49749,STARLINK-3250,PAYLOAD,2023-05-08 04:24:23,15.08844198,0.0001201,53.2151,122.1766,88.067,272.046,0.00017002,2.419e-05,0.0,0 STARLINK-3250,1 49749U 21115AB  23128.18360640  .00002419  00000-0  17002-3 0  9996,2 49749  53.2151 122.1766 0001201  88.0670 272.0460 15.08844198 80164,6917.868,95.437,540.563,538.902,0.0
49749,STARLINK-3250,PAYLOAD,2023-05-08 17:07:28,15.08844899,0.000119,53.2155,119.7982,86.5516,273.5613,0.0001648,2.336e-05,0.0,0 STARLINK-3250,1 49749U 21115AB  23128.71352524  .00002336  00000-0  16480-3 0  9994,2 49749  53.2155 119.7982 0001190  86.5516 273.5613 15.08844899 79138,6917.865,95.437,540.554,538.907,0.0
49749,STARLINK-3250,PAYLOAD,2023-05-09 10:36:42,15.08849076,0.0001243,53.2161,116.5263,93.0077,267.1057,0.00019361,2.796e-05,0.0,0 STARLINK-3250,1 49749U 21115AB  23129.44216154  .00002796  00000-0  19361-3 0  9994,2 49749  53.2161 116.5263 0001243  93.0077 267.1057 15.08849076 79241,6917.853,95.437,540.578,538.858,0.0
49749,STARLINK-3250,PAYLOAD,2023-05-10 05:41:20,15.08841469,0.0001254,53.2163,112.9584,87.4051,272.7085,6.2116e-05,7.01e-06,0.0,0 STARLINK-3250,1 49749U 21115AB  23130.23704645  .00000701  00000-0  62116-4 0  9991,2 49749  53.2163 112.9584 0001254  87.4051 272.7085 15.08841469 79364,6917.876,95.437,540.608,538.873,0.0
49749,STARLINK-3250,PAYLOAD,2023-05-11 05:32:07,15.08845868,0.0001229,53.2165,108.4992,88.0274,272.0858,0.00014494,2.02e-05,0.0,0 STARLINK-3250,1 49749U 21115AB  23131.23064443  .00002020  00000-0  14494-3 0  9998,2 49749  53.2165 108.4992 0001229  88.0274 272.0858 15.08845868 80624,6917.862,95.437,540.578,538.877,0.0
49749,STARLINK-3250,PAYLOAD,2023-05-12 05:22:55,15.08832767,0.0001281,53.2169,104.0405,96.8125,263.3013,-1.3836e-05,-5.08e-06,0.0,0 STARLINK-3250,1 49749U 21115AB  23132.22425304 -.00000508  00000-0 -13836-4 0  9996,2 49749  53.2169 104.0405 0001281  96.8125 263.3013 15.08832767 80775,6917.902,95.438,540.654,538.881,0.0
49749,STARLINK-3250,PAYLOAD,2023-05-13 06:49:06,15.08829051,0.0001407,53.2165,99.2822,102.2154,257.8995,0.00069016,0.0001071,0.0,0 STARLINK-3250,1 49749U 21115AB  23133.28409855  .00010710  00000-0  69016-3 0  9990,2 49749  53.2165  99.2822 0001407 102.2154 257.8995 15.08829051 79826,6917.914,95.438,540.752,538.806,0.0
49749,STARLINK-3250,PAYLOAD,2023-05-14 06:39:52,15.0883926,0.0001206,53.2166,94.8204,100.0792,260.0336,0.00011877,1.603e-05,0.0,0 STARLINK-3250,1 49749U 21115AB  23134.27769573  .00001603  00000-0  11877-3 0  9999,2 49749  53.2166  94.8204 0001206 100.0792 260.0336 15.08839260 79977,6917.883,95.438,540.582,538.913,0.0
